{"type":"FeatureCollection","features":[{"type":"Feature","geometry":{"type":"Point","coordinates":[107.6338867,-6.8977845]},"properties":{"id":3377321689,"bus":"yes","highway":"bus_stop","name":"Pahlawan","public_transport":"platform","ref":"Pahlawan"}},{"type":"Feature","geometry":{"type":"Point","coordinates":[107.6262249,-6.865147]},"properties":{"id":3636514738,"bus":"yes","highway":"bus_stop","name":"Jl. Resor Dago Pakar","public_transport":"platform","ref":"Jl. Resor Dago Pakar"}},{"type":"Feature","geometry":{"type":"Point","coordinates":[107.612053,-6.8990682]},"properties":{"id":9740431474,"addr:city":"Bandung","addr:full":"Jalan Cikapayang","bus":"yes","highway":"bus_stop","name":"Cikapayang Dago 1","public_transport":"platform","source":"S2City_POI_2022","wheelchair":"no"}},{"type":"Feature","geometry":{"type":"Point","coordinates":[107.5849703,-6.9270868]},"properties":{"id":11869564206,"bus":"yes","highway":"bus_stop","name":"Simpang Pasir Koja","public_transport":"platform","route_ref":"1"}},{"type":"Feature","geometry":{"type":"Point","coordinates":[107.579333,-6.9292427]},"properties":{"id":11869564207,"bus":"yes","highway":"bus_stop","name":"SPBU Pasir Koja","public_transport":"platform","route_ref":"1"}},{"type":"Feature","geometry":{"type":"Point","coordinates":[107.5831695,-6.9418656]},"properties":{"id":11869564210,"bus":"yes","highway":"bus_stop","name":"Pasar Induk Caringin","public_transport":"platform","route_ref":"1"}},{"type":"Feature","geometry":{"type":"Point","coordinates":[107.6185414,-6.899416]},"properties":{"id":11876087253,"bus":"yes","highway":"bus_stop","name":"Surapati","public_transport":"platform"}},{"type":"Feature","geometry":{"type":"Point","coordinates":[107.579147,-6.9081391]},"properties":{"id":11878347327,"bus":"yes","highway":"bus_stop","name":"Andir","public_transport":"platform"}},{"type":"Feature","geometry":{"type":"Point","coordinates":[107.5893338,-6.9112897]},"properties":{"id":11879320673,"bus":"yes","highway":"bus_stop","name":"Pasar Jatayu","public_transport":"platform"}},{"type":"Feature","geometry":{"type":"Point","coordinates":[107.5910274,-6.9166406]},"properties":{"id":11883118277,"bus":"yes","highway":"bus_stop","name":"SMA Trinitas","public_transport":"platform"}},{"type":"Feature","geometry":{"type":"Point","coordinates":[107.5860444,-6.9222952]},"properties":{"id":11883118278,"bus":"yes","highway":"bus_stop","name":"Jamika","public_transport":"platform"}}]}