{"type":"FeatureCollection","features":[{"type":"Feature","geometry":{"type":"Point","coordinates":[107.6169366,-6.9072448]},"properties":{"id":9735217308,"addr:city":"Bandung","addr:full":"Jalan banda depan pos indonesia","bench":"yes","bin":"no","bus":"yes","highway":"bus_stop","lit":"no","name":"Jalan Banda","public_transport":"platform","shelter":"yes","source":"S2City_POI_2022","wheelchair":"no"}},{"type":"Feature","geometry":{"type":"Point","coordinates":[107.6116714,-6.9069866]},"properties":{"id":9735217309,"addr:city":"Bandung","addr:full":"Jl. L. L. R.E. Martadinata No. 11 Citarum, Bandung Wetan","bench":"no","bin":"no","bus":"yes","highway":"bus_stop","lit":"no","name":"Riau Junction","public_transport":"platform","shelter":"yes","source":"S2City_POI_2022","wheelchair":"limited"}},{"type":"Feature","geometry":{"type":"Point","coordinates":[107.6047571,-6.907243]},"properties":{"id":11138593920,"bus":"yes","highway":"bus_stop","name":"Pajajaran Timur","public_transport":"platform"}},{"type":"Feature","geometry":{"type":"Point","coordinates":[107.6177955,-6.9203431]},"properties":{"id":11880588499,"bus":"yes","highway":"bus_stop","name":"Sunda Veteran","public_transport":"platform"}}]}