{"type":"FeatureCollection","features":[{"type":"Feature","geometry":{"type":"Point","coordinates":[107.6371675,-6.898571]},"properties":{"id":3376171462,"bus":"yes","highway":"bus_stop","name":"Sukasenang Raya 1","public_transport":"platform"}},{"type":"Feature","geometry":{"type":"Point","coordinates":[107.58133,-6.8859546]},"properties":{"id":3384993311,"bus":"yes","highway":"bus_stop","name":"Maranatha","public_transport":"platform"}},{"type":"Feature","geometry":{"type":"Point","coordinates":[107.612053,-6.8990682]},"properties":{"id":9740431474,"addr:city":"Bandung","addr:full":"Jalan Cikapayang","bus":"yes","highway":"bus_stop","name":"Cikapayang Dago 1","public_transport":"platform","source":"S2City_POI_2022","wheelchair":"no"}},{"type":"Feature","geometry":{"type":"Point","coordinates":[107.6490456,-6.9017562]},"properties":{"id":11883306548,"bus":"yes","highway":"bus_stop","name":"Cimuncang","public_transport":"platform"}},{"type":"Feature","geometry":{"type":"Point","coordinates":[107.6426541,-6.8998699]},"properties":{"id":11883306549,"bus":"yes","highway":"bus_stop","name":"Cikutra","public_transport":"platform"}},{"type":"Feature","geometry":{"type":"Point","coordinates":[107.6325214,-6.8983461]},"properties":{"id":11883306550,"bus":"yes","highway":"bus_stop","name":"BKKBN","public_transport":"platform"}},{"type":"Feature","geometry":{"type":"Point","coordinates":[107.629359,-6.8999494]},"properties":{"id":11883306551,"bus":"yes","highway":"bus_stop","name":"SMPN 63 Kota Bandung","public_transport":"platform"}},{"type":"Feature","geometry":{"type":"Point","coordinates":[107.6224185,-6.8993016]},"properties":{"id":11883306552,"bus":"yes","highway":"bus_stop","name":"Wisma BKN","public_transport":"platform"}},{"type":"Feature","geometry":{"type":"Point","coordinates":[107.5884158,-6.8951325]},"properties":{"id":11883306553,"bus":"yes","highway":"bus_stop","name":"Griya Pasteur 1","public_transport":"platform"}},{"type":"Feature","geometry":{"type":"Point","coordinates":[107.5832441,-6.8924096]},"properties":{"id":12013144936,"bus":"yes","highway":"bus_stop","name":"Warung Cepot","public_transport":"platform"}},{"type":"Feature","geometry":{"type":"Point","coordinates":[107.5786866,-6.8813132]},"properties":{"id":11883306554,"bus":"yes","highway":"bus_stop","name":"Lemahneundeut","public_transport":"platform"}},{"type":"Feature","geometry":{"type":"Point","coordinates":[107.5784171,-6.8816157]},"properties":{"id":11883306555,"bus":"yes","highway":"bus_stop","name":"Sarijadi","public_transport":"platform"}},{"type":"Feature","geometry":{"type":"Point","coordinates":[107.5764412,-6.8814943]},"properties":{"id":12628813988,"bus":"yes","highway":"bus_stop","name":"Sarimanah","public_transport":"platform"}}]}