{"type":"FeatureCollection","features":[{"type":"Feature","geometry":{"type":"Point","coordinates":[107.5849629,-6.8925026]},"properties":{"id":2958261154,"bench":"no","bus":"yes","covered":"no","highway":"bus_stop","name":"Bandung Trade Center (BTC)","public_transport":"platform","shelter":"no"}},{"type":"Feature","geometry":{"type":"Point","coordinates":[107.6370948,-6.8983767]},"properties":{"id":3376171463,"bus":"yes","highway":"bus_stop","name":"Sukasenang Raya 2","public_transport":"platform"}},{"type":"Feature","geometry":{"type":"Point","coordinates":[107.6439455,-6.8999587]},"properties":{"id":3376171465,"bus":"yes","highway":"bus_stop","name":"Sukapada","public_transport":"platform"}},{"type":"Feature","geometry":{"type":"Point","coordinates":[107.6285878,-6.899801]},"properties":{"id":3377321690,"bus":"yes","highway":"bus_stop","name":"Dapen Telkom","public_transport":"platform"}},{"type":"Feature","geometry":{"type":"Point","coordinates":[107.6525389,-6.9018313]},"properties":{"id":5391571113,"bus":"yes","highway":"bus_stop","name":"Surapati Core","public_transport":"platform"}},{"type":"Feature","geometry":{"type":"Point","coordinates":[107.6179718,-6.8992242]},"properties":{"id":9739234180,"addr:city":"Bandung","addr:full":"Jalan Surapati","bus":"yes","departures_board":"no","highway":"bus_stop","name":"Gasibu","network":"Trans Metro Bandung","public_transport":"platform","shelter":"yes","source":"S2City_POI_2022","wheelchair":"no"}},{"type":"Feature","geometry":{"type":"Point","coordinates":[107.6135041,-6.8988066]},"properties":{"id":9739234185,"addr:city":"Bandung","addr:full":"Jalan Surapati","bus":"yes","highway":"bus_stop","name":"Cikapayang Dago 2","public_transport":"platform","source":"S2City_POI_2022","wheelchair":"no"}},{"type":"Feature","geometry":{"type":"Point","coordinates":[107.6227745,-6.8991317]},"properties":{"id":9759075877,"addr:city":"Bandung","addr:full":"Jl. Surapati No.71;Jl. Surapati","bus":"yes","highway":"bus_stop","name":"Distan Jabar","public_transport":"platform","source":"S2City_POI_2022","wheelchair":"yes"}},{"type":"Feature","geometry":{"type":"Point","coordinates":[107.6321152,-6.8982766]},"properties":{"id":10814398673,"bus":"yes","highway":"bus_stop","name":"Jalaprang","public_transport":"platform","shelter":"yes","source":"POI_WRI_Survey_2023","wheelchair":"no"}},{"type":"Feature","geometry":{"type":"Point","coordinates":[107.5815337,-6.8821948]},"properties":{"id":11883429122,"bus":"yes","highway":"bus_stop","name":"Setrasari","public_transport":"platform"}},{"type":"Feature","geometry":{"type":"Point","coordinates":[107.6101358,-6.8981855]},"properties":{"id":11883429124,"bus":"yes","highway":"bus_stop","name":"Tamansari Cikapayang","public_transport":"platform"}},{"type":"Feature","geometry":{"type":"Point","coordinates":[107.6404694,-6.8991824]},"properties":{"id":11883429126,"bus":"yes","highway":"bus_stop","name":"Sekolah Pribadi","public_transport":"platform"}},{"type":"Feature","geometry":{"type":"Point","coordinates":[107.6362141,-6.8981794]},"properties":{"id":12013144933,"bus":"yes","highway":"bus_stop","name":"ITENAS","public_transport":"platform"}},{"type":"Feature","geometry":{"type":"Point","coordinates":[107.5884023,-6.8948348]},"properties":{"id":12628813993,"bus":"yes","highway":"bus_stop","name":"Griya Pasteur 2","public_transport":"platform"}},{"type":"Feature","geometry":{"type":"Point","coordinates":[107.5784171,-6.8816157]},"properties":{"id":11883306555,"bus":"yes","highway":"bus_stop","name":"Sarijadi","public_transport":"platform"}}]}