{"type":"FeatureCollection","features":[{"type":"Feature","geometry":{"type":"Point","coordinates":[107.5976573,-6.9058883]},"properties":{"id":3377321684,"bus":"yes","covered":"yes","highway":"bus_stop","name":"Istana Plaza (IP)","public_transport":"platform","ref":"Istana Plaza (IP)"}},{"type":"Feature","geometry":{"type":"Point","coordinates":[107.6338867,-6.8977845]},"properties":{"id":3377321689,"bus":"yes","highway":"bus_stop","name":"Pahlawan","public_transport":"platform","ref":"Pahlawan"}},{"type":"Feature","geometry":{"type":"Point","coordinates":[107.5975194,-6.9007973]},"properties":{"id":3377322397,"bus":"yes","highway":"bus_stop","name":"Pasteur","public_transport":"platform","ref":"Pasteur"}},{"type":"Feature","geometry":{"type":"Point","coordinates":[107.59739,-6.8968355]},"properties":{"id":3377322399,"bus":"yes","highway":"platform","name":"RS Hasan Sadikin","public_transport":"platform","ref":"RS Hasan Sadikin"}},{"type":"Feature","geometry":{"type":"Point","coordinates":[107.6135041,-6.8988066]},"properties":{"id":9739234185,"addr:city":"Bandung","addr:full":"Jalan Surapati","bus":"yes","highway":"bus_stop","name":"Cikapayang Dago 2","public_transport":"platform","source":"S2City_POI_2022","wheelchair":"no"}},{"type":"Feature","geometry":{"type":"Point","coordinates":[107.6562115,-6.9024362]},"properties":{"id":10814583285,"amenity":"bus_station","bus":"yes","name":"Terminal Angkot Cicaheum","public_transport":"station","shelter":"yes","source":"POI_WRI_Survey_2023","wheelchair":"no"}},{"type":"Feature","geometry":{"type":"Point","coordinates":[107.617883,-6.8934546]},"properties":{"id":11874791387,"bus":"yes","highway":"bus_stop","name":"UNPAD Dipatiukur","public_transport":"platform"}},{"type":"Feature","geometry":{"type":"Point","coordinates":[107.6185414,-6.899416]},"properties":{"id":11876087253,"bus":"yes","highway":"bus_stop","name":"Surapati","public_transport":"platform"}},{"type":"Feature","geometry":{"type":"Point","coordinates":[107.579147,-6.9081391]},"properties":{"id":11878347327,"bus":"yes","highway":"bus_stop","name":"Andir","public_transport":"platform"}}]}